OBJECT_NAME,OBJECT_ID,EPOCH,MEAN_MOTION,ECCENTRICITY,INCLINATION,RA_OF_ASC_NODE,ARG_OF_PERICENTER,MEAN_ANOMALY,EPHEMERIS_TYPE,CLASSIFICATION_TYPE,NORAD_CAT_ID,ELEMENT_SET_NO,REV_AT_EPOCH,BSTAR,MEAN_MOTION_DOT,MEAN_MOTION_DDOT
FENGYUN 3D,2017-072A,2026-06-06T13:49:38.013024,14.19736322,.00026557,99.0127,131.8075,78.6423,281.5051,0,U,43010,999,44348,-.9777056E-5,-.67E-6,0
NOAA 20 (JPSS-1),2017-073A,2026-06-06T13:39:51.299136,14.19509764,.00005414,98.7769,97.1265,38.9175,321.2040,0,U,43013,999,44296,.57007094E-4,.76E-6,0
GOES 17,2018-022A,2026-06-06T13:02:49.052256,1.00271058,.00006916,0.9099,85.9077,12.6777,262.5880,0,U,43226,999,3031,0,-.169E-5,0
SENTINEL-3B,2018-039A,2026-06-06T11:02:09.718080,14.26738727,.00009125,98.6250,225.1456,76.1590,283.9692,0,U,43437,999,42259,.69846099E-4,.125E-5,0
FENGYUN 2H,2018-050A,2026-06-06T13:51:03.053952,1.00271725,.00014479,3.0036,79.1959,126.7586,336.2580,0,U,43491,999,2933,0,-.117E-5,0
METOP-C,2018-087A,2026-06-06T12:14:17.654784,14.21509321,.00013574,98.6647,217.3083,141.1299,218.9976,0,U,43689,999,39331,.73266739E-4,.117E-5,0
GEO-KOMPSAT-2A,2018-100A,2026-06-06T14:04:57.829152,1.00272064,.00024015,0.0494,135.6622,306.8421,152.0067,0,U,43823,999,2752,0,-.33E-5,0
METEOR-M2 2,2019-038A,2026-06-06T13:36:50.064768,14.24363929,.00023459,98.9146,144.6966,63.1312,297.0106,0,U,44387,999,35978,.15688075E-3,.317E-5,0
ARKTIKA-M 1,2021-016A,2026-06-02T00:56:25.095840,2.00628509,.72832396,63.2379,59.8266,269.8643,14.6915,0,U,47719,999,3848,0,-.2E-5,0
FENGYUN 3E,2021-062A,2026-06-06T13:28:06.437568,14.19904188,.00026859,98.7494,161.0881,102.5708,257.5769,0,U,49008,999,25507,.16862314E-3,.314E-5,0
GOES 18,2022-021A,2026-06-06T12:49:12.855648,1.00271790,.00006162,0.0141,98.0092,32.6357,179.6103,0,U,51850,999,648,0,.11E-5,0
NOAA 21 (JPSS-2),2022-150A,2026-06-06T14:27:47.460960,14.19563614,.00010518,98.7057,96.5697,180.6791,179.4384,0,U,54234,999,18504,.54196933E-4,.71E-6,0
METEOSAT-12 (MTG-I1),2022-170C,2026-06-06T08:20:04.793280,1.00271557,.00035183,0.7261,21.1051,70.2251,288.0323,0,U,54743,999,1286,0,.5E-7,0
TIANMU-1 03,2023-039A,2026-06-06T13:44:13.020288,15.46980978,.0004068,97.5238,331.1287,125.1592,235.0039,0,U,55973,999,17919,.38948895E-3,.19583E-3,0
TIANMU-1 04,2023-039B,2026-06-06T15:08:01.493376,15.47569365,.0004732,97.5174,330.3423,122.5590,237.6118,0,U,55974,999,17921,.3878603E-3,.19905E-3,0
TIANMU-1 05,2023-039C,2026-06-06T14:48:56.231136,15.46909196,.00037179,97.5218,330.7944,140.4131,219.7391,0,U,55975,999,17918,.37026681E-3,.18563E-3,0
TIANMU-1 06,2023-039D,2026-06-06T13:38:51.042912,15.47475802,.00039907,97.5226,331.3689,136.6152,223.5413,0,U,55976,999,17920,.39345007E-3,.20126E-3,0
FENGYUN 3G,2023-055A,2026-06-06T14:50:05.362368,15.54333967,.00055548,49.9932,40.5036,155.6513,204.4718,0,U,56232,999,17836,.48961068E-3,.32376E-3,0
METEOR-M2 3,2023-091A,2026-06-06T15:06:18.916704,14.24045993,.00037403,98.6086,212.8232,183.8999,176.2152,0,U,57166,999,15301,.22792231E-4,.9E-7,0
TIANMU-1 07,2023-101A,2026-06-06T13:38:55.952160,15.29683569,.00034484,97.2594,208.4817,143.7406,216.4069,0,U,57399,999,16002,.26995679E-3,.7692E-4,0
TIANMU-1 08,2023-101B,2026-06-06T08:08:20.728320,15.29687744,.00049864,97.2582,208.0295,142.0036,218.1557,0,U,57400,999,15998,.31505615E-3,.8993E-4,0
TIANMU-1 09,2023-101C,2026-06-06T14:01:32.636928,15.29716701,.00038109,97.2540,207.6904,151.7932,208.3516,0,U,57401,999,16002,.27596506E-3,.7873E-4,0
TIANMU-1 10,2023-101D,2026-06-06T13:14:39.340608,15.29686832,.00054019,97.2620,208.6984,154.7345,205.4161,0,U,57402,999,16001,.29013319E-3,.8275E-4,0
FENGYUN 3F,2023-111A,2026-06-06T14:46:46.388352,14.19937361,.00015705,98.6836,227.8212,100.6339,259.5015,0,U,57490,999,14736,.45873472E-4,.54E-6,0
ARKTIKA-M 2,2023-198A,2026-06-03T07:17:21.587712,2.00591941,.68985494,63.2209,155.9142,267.4684,18.7857,0,U,58584,999,1804,0,.15E-5,0
TIANMU-1 11,2023-205A,2026-06-06T12:03:58.738752,15.26883645,.00101316,97.3451,179.2281,51.1798,309.0344,0,U,58645,999,13589,.25389311E-3,.6641E-4,0
TIANMU-1 12,2023-205B,2026-06-06T14:29:40.392672,15.26846483,.00080322,97.3441,179.0856,38.6390,321.5422,0,U,58646,999,13589,.28683895E-3,.7501E-4,0
TIANMU-1 13,2023-205C,2026-06-06T12:05:47.859360,15.26699897,.00072243,97.3467,179.2583,20.3658,339.7868,0,U,58647,999,13587,.26670313E-3,.6936E-4,0
TIANMU-1 14,2023-205D,2026-06-06T11:44:56.650848,15.26744398,.00081932,97.3403,178.4342,23.8520,336.3097,0,U,58648,999,13587,.26563492E-3,.6919E-4,0
TIANMU-1 19,2023-208A,2026-06-06T13:43:04.821312,15.31412528,.00047264,97.4493,273.8194,11.0565,349.0779,0,U,58660,999,13570,.33347957E-3,.10044E-3,0
