FENGYUN 3D              
1 43010U 17072A   26157.57613441 -.00000067  00000+0 -97771-5 0  9997
2 43010  99.0127 131.8075 0002655  78.6423 281.5051 14.19736322443484
NOAA 20 (JPSS-1)        
1 43013U 17073A   26157.56934374  .00000076  00000+0  57007-4 0  9996
2 43013  98.7769  97.1265 0000541  38.9175 321.2040 14.19509764442965
GOES 17                 
1 43226U 18022A   26157.54362329 -.00000169  00000+0  00000+0 0  9990
2 43226   0.9099  85.9077 0000691  12.6777 262.5880  1.00271058 30310
SENTINEL-3B             
1 43437U 18039A   26157.45983470  .00000125  00000+0  69846-4 0  9997
2 43437  98.6250 225.1456 0000912  76.1590 283.9692 14.26738727422596
FENGYUN 2H              
1 43491U 18050A   26157.57711868 -.00000117  00000+0  00000+0 0  9997
2 43491   3.0036  79.1959 0001447 126.7586 336.2580  1.00271725 29335
METOP-C                 
1 43689U 18087A   26157.50992656  .00000117  00000+0  73267-4 0  9994
2 43689  98.6647 217.3083 0001357 141.1299 218.9976 14.21509321393318
GEO-KOMPSAT-2A          
1 43823U 18100A   26157.58678043 -.00000330  00000+0  00000+0 0  9997
2 43823   0.0494 135.6622 0002401 306.8421 152.0067  1.00272064 27524
METEOR-M2 2             
1 44387U 19038A   26157.56724612  .00000317  00000+0  15688-3 0  9992
2 44387  98.9146 144.6966 0002345  63.1312 297.0106 14.24363929359781
ARKTIKA-M 1             
1 47719U 21016A   26153.03917935 -.00000200  00000+0  00000+0 0  9993
2 47719  63.2379  59.8266 7283239 269.8643  14.6915  2.00628509 38489
FENGYUN 3E              
1 49008U 21062A   26157.56118562  .00000314  00000+0  16862-3 0  9990
2 49008  98.7494 161.0881 0002685 102.5708 257.5769 14.19904188255078
GOES 18                 
1 51850U 22021A   26157.53417657  .00000110  00000+0  00000+0 0  9995
2 51850   0.0141  98.0092 0000616  32.6357 179.6103  1.00271790  6486
NOAA 21 (JPSS-2)        
1 54234U 22150A   26157.60263265  .00000071  00000+0  54197-4 0  9996
2 54234  98.7057  96.5697 0001051 180.6791 179.4384 14.19563614185041
METEOSAT-12 (MTG-I1)    
1 54743U 22170C   26157.34727770  .00000005  00000+0  00000+0 0  9996
2 54743   0.7261  21.1051 0003518  70.2251 288.0323  1.00271557 12866
TIANMU-1 03             
1 55973U 23039A   26157.57237292  .00019583  00000+0  38949-3 0  9995
2 55973  97.5238 331.1287 0004068 125.1592 235.0039 15.46980978179199
TIANMU-1 04             
1 55974U 23039B   26157.63057284  .00019905  00000+0  38786-3 0  9991
2 55974  97.5174 330.3423 0004732 122.5590 237.6118 15.47569365179212
TIANMU-1 05             
1 55975U 23039C   26157.61731749  .00018563  00000+0  37027-3 0  9991
2 55975  97.5218 330.7944 0003717 140.4131 219.7391 15.46909196179185
TIANMU-1 06             
1 55976U 23039D   26157.56864633  .00020126  00000+0  39345-3 0  9998
2 55976  97.5226 331.3689 0003990 136.6152 223.5413 15.47475802179205
FENGYUN 3G              
1 56232U 23055A   26157.61811762  .00032376  00000+0  48961-3 0  9997
2 56232  49.9932  40.5036 0005554 155.6513 204.4718 15.54333967178366
METEOR-M2 3             
1 57166U 23091A   26157.62938561  .00000009  00000+0  22792-4 0  9995
2 57166  98.6086 212.8232 0003740 183.8999 176.2152 14.24045993153010
TIANMU-1 07             
1 57399U 23101A   26157.56870315  .00007692  00000+0  26996-3 0  9994
2 57399  97.2594 208.4817 0003448 143.7406 216.4069 15.29683569160026
TIANMU-1 08             
1 57400U 23101B   26157.33912880  .00008993  00000+0  31506-3 0  9994
2 57400  97.2582 208.0295 0004986 142.0036 218.1557 15.29687744159984
TIANMU-1 09             
1 57401U 23101C   26157.58440552  .00007873  00000+0  27597-3 0  9995
2 57401  97.2540 207.6904 0003810 151.7932 208.3516 15.29716701160027
TIANMU-1 10             
1 57402U 23101D   26157.55184422  .00008275  00000+0  29013-3 0  9996
2 57402  97.2620 208.6984 0005401 154.7345 205.4161 15.29686832160019
FENGYUN 3F              
1 57490U 23111A   26157.61581468  .00000054  00000+0  45873-4 0  9992
2 57490  98.6836 227.8212 0001570 100.6339 259.5015 14.19937361147368
ARKTIKA-M 2             
1 58584U 23198A   26154.30372208  .00000150  00000+0  00000+0 0  9990
2 58584  63.2209 155.9142 6898549 267.4684  18.7857  2.00591941 18047
TIANMU-1 11             
1 58645U 23205A   26157.50276318  .00006641  00000+0  25389-3 0  9999
2 58645  97.3451 179.2281 0010131  51.1798 309.0344 15.26883645135893
TIANMU-1 12             
1 58646U 23205B   26157.60393973  .00007501  00000+0  28684-3 0  9995
2 58646  97.3441 179.0856 0008032  38.6390 321.5422 15.26846483135899
TIANMU-1 13             
1 58647U 23205C   26157.50402615  .00006936  00000+0  26670-3 0  9993
2 58647  97.3467 179.2583 0007224  20.3658 339.7868 15.26699897135872
TIANMU-1 14             
1 58648U 23205D   26157.48954457  .00006919  00000+0  26563-3 0  9999
2 58648  97.3403 178.4342 0008193  23.8520 336.3097 15.26744398135873
TIANMU-1 19             
1 58660U 23208A   26157.57158358  .00010044  00000+0  33348-3 0  9995
2 58660  97.4493 273.8194 0004726  11.0565 349.0779 15.31412528135701
